{
    "links": {
        "self": "http://www.neowsapp.com/rest/v1/neo/3694128?api_key=iIulBulltgU6a56xZRHN4H3l9WmuAYTsLGpBGhQ2"
    },
    "id": "3694128",
    "neo_reference_id": "3694128",
    "name": "(2014 UT34)",
    "designation": "2014 UT34",
    "nasa_jpl_url": "http://ssd.jpl.nasa.gov/sbdb.cgi?sstr=3694128",
    "absolute_magnitude_h": 24.7,
    "estimated_diameter": {
        "kilometers": {
            "estimated_diameter_min": 0.0305179233,
            "estimated_diameter_max": 0.0682401509
        },
        "meters": {
            "estimated_diameter_min": 30.5179232594,
            "estimated_diameter_max": 68.2401509401
        },
        "miles": {
            "estimated_diameter_min": 0.0189629525,
            "estimated_diameter_max": 0.0424024508
        },
        "feet": {
            "estimated_diameter_min": 100.1244233463,
            "estimated_diameter_max": 223.8850168104
        }
    },
    "is_potentially_hazardous_asteroid": false,
    "close_approach_data": [
        {
            "close_approach_date": "2014-10-21",
            "close_approach_date_full": "2014-Oct-21 11:10",
            "epoch_date_close_approach": 1413889800000,
            "relative_velocity": {
                "kilometers_per_second": "8.3419710796",
                "kilometers_per_hour": "30031.0958864956",
                "miles_per_hour": "18660.1551079172"
            },
            "miss_distance": {
                "astronomical": "0.0996260889",
                "lunar": "38.7545485821",
                "kilometers": "14903850.695870643",
                "miles": "9260823.3923271534"
            },
            "orbiting_body": "Earth"
        }
    ],
    "orbital_data": {
        "orbit_id": "5",
        "orbit_determination_date": "2017-04-06 08:38:00",
        "first_observation_date": "2014-10-23",
        "last_observation_date": "2014-10-29",
        "data_arc_in_days": 6,
        "observations_used": 29,
        "orbit_uncertainty": "8",
        "minimum_orbit_intersection": ".0977498",
        "jupiter_tisserand_invariant": "4.725",
        "epoch_osculation": "2456955.5",
        "eccentricity": ".2573071446195757",
        "semi_major_axis": "1.385309984664621",
        "inclination": "13.58805593726339",
        "ascending_node_longitude": "220.8787859824434",
        "orbital_period": "595.5508838395457",
        "perihelion_distance": "1.028859828097579",
        "perihelion_argument": "128.6451136185482",
        "aphelion_distance": "1.741760141231663",
        "perihelion_time": "2456913.922506355497",
        "mean_anomaly": "25.13286121837703",
        "mean_motion": ".6044823536807843",
        "equinox": "J2000",
        "orbit_class": {
            "orbit_class_type": "AMO",
            "orbit_class_description": "Near-Earth asteroid orbits similar to that of 1221 Amor",
            "orbit_class_range": "1.017 AU < q (perihelion) < 1.3 AU"
        }
    },
    "is_sentry_object": false
}